FENGYUN 1C DEB          
1 30027U 99025NC  17346.54039726  .00037275  00000-0  38709-3 0  9998
2 30027  98.2866 196.5852 0070170  76.2590 315.4118 15.61411012588919
